[{"OBJECT_NAME":"STARLINK-32249","OBJECT_ID":"2024-144V","EPOCH":"2025-12-20T01:34:22.953216","MEAN_MOTION":15.3018429,"ECCENTRICITY":0.00013116,"INCLINATION":53.1587,"RA_OF_ASC_NODE":226.598,"ARG_OF_PERICENTER":76.6178,"MEAN_ANOMALY":283.4969,"EPHEMERIS_TYPE":0,"CLASSIFICATION_TYPE":"U","NORAD_CAT_ID":60444,"ELEMENT_SET_NO":999,"REV_AT_EPOCH":7716,"BSTAR":2.5151754e-5,"MEAN_MOTION_DOT":3.85e-6,"MEAN_MOTION_DDOT":0},{"OBJECT_NAME":"STARLINK-32228","OBJECT_ID":"2024-144W","EPOCH":"2025-12-20T01:38:54.676032","MEAN_MOTION":15.30193735,"ECCENTRICITY":0.00013394,"INCLINATION":53.1595,"RA_OF_ASC_NODE":226.6182,"ARG_OF_PERICENTER":91.3957,"MEAN_ANOMALY":268.7197,"EPHEMERIS_TYPE":0,"CLASSIFICATION_TYPE":"U","NORAD_CAT_ID":60445,"ELEMENT_SET_NO":999,"REV_AT_EPOCH":7716,"BSTAR":4.6448697e-5,"MEAN_MOTION_DOT":1.016e-5,"MEAN_MOTION_DDOT":0},{"OBJECT_NAME":"STARLINK-32247","OBJECT_ID":"2024-144X","EPOCH":"2025-12-20T07:55:13.301184","MEAN_MOTION":15.30190715,"ECCENTRICITY":0.00014937,"INCLINATION":53.1594,"RA_OF_ASC_NODE":215.323,"ARG_OF_PERICENTER":94.7622,"MEAN_ANOMALY":265.3549,"EPHEMERIS_TYPE":0,"CLASSIFICATION_TYPE":"U","NORAD_CAT_ID":60446,"ELEMENT_SET_NO":999,"REV_AT_EPOCH":7734,"BSTAR":7.85705e-7,"MEAN_MOTION_DOT":-3.36e-6,"MEAN_MOTION_DDOT":0},{"OBJECT_NAME":"STARLINK-32101","OBJECT_ID":"2024-144Y","EPOCH":"2025-12-20T01:46:30.620064","MEAN_MOTION":15.30195101,"ECCENTRICITY":0.00012206,"INCLINATION":53.1595,"RA_OF_ASC_NODE":226.652,"ARG_OF_PERICENTER":85.8409,"MEAN_ANOMALY":274.2731,"EPHEMERIS_TYPE":0,"CLASSIFICATION_TYPE":"U","NORAD_CAT_ID":60447,"ELEMENT_SET_NO":999,"REV_AT_EPOCH":7712,"BSTAR":7.636989e-6,"MEAN_MOTION_DOT":-1.33e-6,"MEAN_MOTION_DDOT":0},{"OBJECT_NAME":"STARLINK-31844","OBJECT_ID":"2024-150A","EPOCH":"2025-12-20T01:23:20.881248","MEAN_MOTION":15.30196039,"ECCENTRICITY":0.00015109,"INCLINATION":53.162,"RA_OF_ASC_NODE":316.6082,"ARG_OF_PERICENTER":115.0195,"MEAN_ANOMALY":245.0963,"EPHEMERIS_TYPE":0,"CLASSIFICATION_TYPE":"U","NORAD_CAT_ID":60583,"ELEMENT_SET_NO":999,"REV_AT_EPOCH":7585,"BSTAR":1.5041645e-5,"MEAN_MOTION_DOT":8.6e-7,"MEAN_MOTION_DDOT":0},{"OBJECT_NAME":"STARLINK-32204","OBJECT_ID":"2024-150B","EPOCH":"2025-12-20T06:43:29.301600","MEAN_MOTION":15.30193516,"ECCENTRICITY":8.031e-5,"INCLINATION":53.1614,"RA_OF_ASC_NODE":315.8603,"ARG_OF_PERICENTER":86.0068,"MEAN_ANOMALY":274.1025,"EPHEMERIS_TYPE":0,"CLASSIFICATION_TYPE":"U","NORAD_CAT_ID":60584,"ELEMENT_SET_NO":999,"REV_AT_EPOCH":7588,"BSTAR":-4.782468e-5,"MEAN_MOTION_DOT":-1.775e-5,"MEAN_MOTION_DDOT":0},{"OBJECT_NAME":"STARLINK-32130","OBJECT_ID":"2024-150C","EPOCH":"2025-12-20T04:08:49.619328","MEAN_MOTION":15.3019252,"ECCENTRICITY":0.00012971,"INCLINATION":53.163,"RA_OF_ASC_NODE":316.6147,"ARG_OF_PERICENTER":83.9592,"MEAN_ANOMALY":276.1556,"EPHEMERIS_TYPE":0,"CLASSIFICATION_TYPE":"U","NORAD_CAT_ID":60585,"ELEMENT_SET_NO":999,"REV_AT_EPOCH":7578,"BSTAR":-5.08871e-7,"MEAN_MOTION_DOT":-3.74e-6,"MEAN_MOTION_DDOT":0},{"OBJECT_NAME":"STARLINK-32173","OBJECT_ID":"2024-150D","EPOCH":"2025-12-20T14:15:32.309280","MEAN_MOTION":15.3019472,"ECCENTRICITY":0.0001422,"INCLINATION":53.1612,"RA_OF_ASC_NODE":314.265,"ARG_OF_PERICENTER":110.5193,"MEAN_ANOMALY":249.596,"EPHEMERIS_TYPE":0,"CLASSIFICATION_TYPE":"U","NORAD_CAT_ID":60586,"ELEMENT_SET_NO":999,"REV_AT_EPOCH":7593,"BSTAR":0.00010861,"MEAN_MOTION_DOT":2.858e-5,"MEAN_MOTION_DDOT":0},{"OBJECT_NAME":"STARLINK-31911","OBJECT_ID":"2024-150E","EPOCH":"2025-12-20T03:55:09.147648","MEAN_MOTION":15.30184156,"ECCENTRICITY":0.00012185,"INCLINATION":53.1612,"RA_OF_ASC_NODE":316.5565,"ARG_OF_PERICENTER":72.664,"MEAN_ANOMALY":287.4494,"EPHEMERIS_TYPE":0,"CLASSIFICATION_TYPE":"U","NORAD_CAT_ID":60587,"ELEMENT_SET_NO":999,"REV_AT_EPOCH":7578,"BSTAR":9.2117e-8,"MEAN_MOTION_DOT":-3.56e-6,"MEAN_MOTION_DDOT":0},{"OBJECT_NAME":"STARLINK-31994","OBJECT_ID":"2024-150F","EPOCH":"2025-12-20T04:40:34.635648","MEAN_MOTION":15.30192539,"ECCENTRICITY":0.00012581,"INCLINATION":53.163,"RA_OF_ASC_NODE":316.0366,"ARG_OF_PERICENTER":97.3815,"MEAN_ANOMALY":262.7329,"EPHEMERIS_TYPE":0,"CLASSIFICATION_TYPE":"U","NORAD_CAT_ID":60588,"ELEMENT_SET_NO":999,"REV_AT_EPOCH":7579,"BSTAR":3.448713e-6,"MEAN_MOTION_DOT":-2.57e-6,"MEAN_MOTION_DDOT":0},{"OBJECT_NAME":"STARLINK-32169","OBJECT_ID":"2024-150G","EPOCH":"2025-12-20T04:25:32.513376","MEAN_MOTION":15.30192761,"ECCENTRICITY":0.00012974,"INCLINATION":53.1621,"RA_OF_ASC_NODE":316.6849,"ARG_OF_PERICENTER":79.4894,"MEAN_ANOMALY":280.6253,"EPHEMERIS_TYPE":0,"CLASSIFICATION_TYPE":"U","NORAD_CAT_ID":60589,"ELEMENT_SET_NO":999,"REV_AT_EPOCH":7586,"BSTAR":1.0832033e-5,"MEAN_MOTION_DOT":-3.8e-7,"MEAN_MOTION_DDOT":0},{"OBJECT_NAME":"STARLINK-32209","OBJECT_ID":"2024-150H","EPOCH":"2025-12-20T14:23:07.746144","MEAN_MOTION":15.30194386,"ECCENTRICITY":0.000141,"INCLINATION":53.1623,"RA_OF_ASC_NODE":314.2975,"ARG_OF_PERICENTER":93.7562,"MEAN_ANOMALY":266.36,"EPHEMERIS_TYPE":0,"CLASSIFICATION_TYPE":"U","NORAD_CAT_ID":60590,"ELEMENT_SET_NO":999,"REV_AT_EPOCH":7593,"BSTAR":6.2984e-6,"MEAN_MOTION_DOT":-1.73e-6,"MEAN_MOTION_DDOT":0},{"OBJECT_NAME":"STARLINK-32170","OBJECT_ID":"2024-150J","EPOCH":"2025-12-20T02:43:52.560192","MEAN_MOTION":15.30207757,"ECCENTRICITY":0.00015627,"INCLINATION":53.1628,"RA_OF_ASC_NODE":316.9582,"ARG_OF_PERICENTER":73.9218,"MEAN_ANOMALY":286.1955,"EPHEMERIS_TYPE":0,"CLASSIFICATION_TYPE":"U","NORAD_CAT_ID":60591,"ELEMENT_SET_NO":999,"REV_AT_EPOCH":7577,"BSTAR":-3.0260204e-5,"MEAN_MOTION_DOT":-1.256e-5,"MEAN_MOTION_DDOT":0},{"OBJECT_NAME":"STARLINK-31497","OBJECT_ID":"2024-150K","EPOCH":"2025-12-20T14:42:53.097120","MEAN_MOTION":15.30190099,"ECCENTRICITY":0.0001322,"INCLINATION":53.1638,"RA_OF_ASC_NODE":314.3842,"ARG_OF_PERICENTER":93.3661,"MEAN_ANOMALY":266.7491,"EPHEMERIS_TYPE":0,"CLASSIFICATION_TYPE":"U","NORAD_CAT_ID":60592,"ELEMENT_SET_NO":999,"REV_AT_EPOCH":7593,"BSTAR":-1.3604e-5,"MEAN_MOTION_DOT":-7.62e-6,"MEAN_MOTION_DDOT":0},{"OBJECT_NAME":"STARLINK-32161","OBJECT_ID":"2024-150L","EPOCH":"2025-12-20T04:55:46.289568","MEAN_MOTION":15.30193116,"ECCENTRICITY":0.00013084,"INCLINATION":53.162,"RA_OF_ASC_NODE":316.1041,"ARG_OF_PERICENTER":90.6793,"MEAN_ANOMALY":269.4357,"EPHEMERIS_TYPE":0,"CLASSIFICATION_TYPE":"U","NORAD_CAT_ID":60593,"ELEMENT_SET_NO":999,"REV_AT_EPOCH":7579,"BSTAR":1.008445e-5,"MEAN_MOTION_DOT":-6.1e-7,"MEAN_MOTION_DDOT":0},{"OBJECT_NAME":"STARLINK-32210","OBJECT_ID":"2024-150M","EPOCH":"2025-12-20T04:36:00.762336","MEAN_MOTION":15.30186154,"ECCENTRICITY":0.00013074,"INCLINATION":53.1624,"RA_OF_ASC_NODE":316.0139,"ARG_OF_PERICENTER":89.7812,"MEAN_ANOMALY":270.3338,"EPHEMERIS_TYPE":0,"CLASSIFICATION_TYPE":"U","NORAD_CAT_ID":60594,"ELEMENT_SET_NO":999,"REV_AT_EPOCH":7587,"BSTAR":-6.8803804e-5,"MEAN_MOTION_DOT":-2.395e-5,"MEAN_MOTION_DDOT":0}]
