STARLINK-32249          
1 60444U 24144V   25354.06554344  .00000385  00000+0  25152-4 0  9997
2 60444  53.1587 226.5980 0001311  76.6178 283.4969 15.30184290 77167
STARLINK-32228          
1 60445U 24144W   25354.06868838  .00001016  00000+0  46449-4 0  9998
2 60445  53.1595 226.6182 0001339  91.3957 268.7197 15.30193735 77164
STARLINK-32247          
1 60446U 24144X   25354.33001506 -.00000336  00000+0  78570-6 0  9997
2 60446  53.1594 215.3230 0001493  94.7622 265.3549 15.30190715 77349
STARLINK-32101          
1 60447U 24144Y   25354.07396551 -.00000133  00000+0  76370-5 0  9996
2 60447  53.1595 226.6520 0001220  85.8409 274.2731 15.30195101 77122
STARLINK-31844          
1 60583U 24150A   25354.05788057  .00000086  00000+0  15042-4 0  9992
2 60583  53.1620 316.6082 0001510 115.0195 245.0963 15.30196039 75857
STARLINK-32204          
1 60584U 24150B   25354.28020025 -.00001775  00000+0 -47825-4 0  9994
2 60584  53.1614 315.8603 0000803  86.0068 274.1025 15.30193516 75883
STARLINK-32130          
1 60585U 24150C   25354.17279652 -.00000374  00000+0 -50887-6 0  9993
2 60585  53.1630 316.6147 0001297  83.9592 276.1556 15.30192520 75784
STARLINK-32173          
1 60586U 24150D   25354.59412395  .00002858  00000+0  10861-3 0  9995
2 60586  53.1612 314.2650 0001422 110.5193 249.5960 15.30194720 75936
STARLINK-31911          
1 60587U 24150E   25354.16330032 -.00000356  00000+0  92117-7 0  9996
2 60587  53.1612 316.5565 0001218  72.6640 287.4494 15.30184156 75783
STARLINK-31994          
1 60588U 24150F   25354.19484532 -.00000257  00000+0  34487-5 0  9999
2 60588  53.1630 316.0366 0001258  97.3815 262.7329 15.30192539 75798
STARLINK-32169          
1 60589U 24150G   25354.18440409 -.00000038  00000+0  10832-4 0  9998
2 60589  53.1621 316.6849 0001297  79.4894 280.6253 15.30192761 75862
STARLINK-32209          
1 60590U 24150H   25354.59939521 -.00000173  00000+0  62984-5 0  9999
2 60590  53.1623 314.2975 0001410  93.7562 266.3600 15.30194386 75938
STARLINK-32170          
1 60591U 24150J   25354.11380278 -.00001256  00000+0 -30260-4 0  9992
2 60591  53.1628 316.9582 0001562  73.9218 286.1955 15.30207757 75775
STARLINK-31497          
1 60592U 24150K   25354.61311455 -.00000762  00000+0 -13604-4 0  9993
2 60592  53.1638 314.3842 0001322  93.3661 266.7491 15.30190099 75937
STARLINK-32161          
1 60593U 24150L   25354.20539687 -.00000061  00000+0  10084-4 0  9998
2 60593  53.1620 316.1041 0001308  90.6793 269.4357 15.30193116 75798
STARLINK-32210          
1 60594U 24150M   25354.19167549 -.00002395  00000+0 -68804-4 0  9997
2 60594  53.1624 316.0139 0001307  89.7812 270.3338 15.30186154 75873
